     2.100          NAVIGATION                              RINEX VERSION / TYPE
fic2rin                                 09/01/2010 00:32:39 PGM / RUN BY / DATE
                                                            END OF HEADER
25 10  8 31 12  0  0.0 -.405330210924D-04 -.454747350886D-12  .000000000000D+00
     .150000000000D+03 -.126875000000D+02  .466483716634D-08 -.589121647030D+00
    -.610947608948D-06  .741275493056D-03  .753626227379D-05  .515378266907D+04
     .216000000000D+06 -.111758708954D-07  .178745461868D+01  .111758708954D-07
     .960363739142D+00  .231281250000D+03  .194881675035D+01 -.809426573009D-08
     .249296098469D-09  .100000000000D+01  .159900000000D+04  .100000000000D+01
     .240000000000D+01  .000000000000D+00  .465661287308D-08  .150000000000D+03
     .208806000000D+06  .400000000000D+01
26 10  8 31 12  0  0.0 -.236183404922D-05 -.670752342558D-11  .000000000000D+00
     .520000000000D+02 -.124375000000D+02  .398230873629D-08 -.277503370457D+01
    -.862404704094D-06  .197840965120D-01  .424683094025D-05  .515364428139D+04
     .216000000000D+06  .357627868652D-06 -.223073859144D+00 -.203028321266D-06
     .990067892827D+00  .310062500000D+03  .111017465210D+01 -.769282043685D-08
     .150006248362D-10  .100000000000D+01  .159900000000D+04  .000000000000D+00
     .240000000000D+01  .000000000000D+00 -.605359673500D-08  .520000000000D+02
     .208806000000D+06  .400000000000D+01
27 10  8 31 12  0  0.0  .184641685337D-03  .341060513165D-11  .000000000000D+00
     .400000000000D+02 -.419062500000D+02  .409659921123D-08 -.164495351384D+01
    -.176951289177D-05  .215576656628D-01  .802241265774D-05  .515359156227D+04
     .216000000000D+06 -.171363353729D-06  .704085734306D+00  .558793544769D-06
     .979275277603D+00  .234593750000D+03 -.137877962745D+01 -.780853954273D-08
    -.678599694973D-11  .100000000000D+01  .159900000000D+04  .000000000000D+00
     .240000000000D+01  .000000000000D+00 -.419095158577D-08  .400000000000D+02
     .208806000000D+06  .400000000000D+01
28 10  8 31 12  0  0.0 -.532949343324D-05  .136424205266D-11  .000000000000D+00
     .500000000000D+02 -.196250000000D+02  .450090176634D-08 -.595668957374D+00
    -.968575477600D-06  .161122588906D-01  .729225575924D-05  .515367847061D+04
     .216000000000D+06 -.126659870148D-06  .183928808107D+01  .162050127983D-06
     .971085069294D+00  .245875000000D+03 -.194774493025D+01 -.826641575797D-08
     .154292141173D-09  .100000000000D+01  .159900000000D+04  .000000000000D+00
     .240000000000D+01  .000000000000D+00 -.107102096081D-07  .500000000000D+02
     .208806000000D+06  .400000000000D+01
32 10  8 31 12  0  0.0 -.742394477129D-04 -.898126018001D-11  .000000000000D+00
     .117000000000D+03  .991562500000D+02  .452661712320D-08  .297651332316D+01
     .491738319397D-05  .126515865559D-01  .586360692978D-05  .515365003777D+04
     .216000000000D+06  .115483999252D-06 -.125262775421D+01  .203028321266D-06
     .957684116485D+00  .258656250000D+03 -.944404148464D+00 -.801533387083D-08
     .153577825704D-09  .100000000000D+01  .159900000000D+04  .000000000000D+00
     .240000000000D+01  .000000000000D+00 -.325962901115D-08  .117000000000D+03
     .208806000000D+06  .400000000000D+01
22 10  8 31 11 59 44.0  .164036173373D-03 -.909494701773D-12  .000000000000D+00
     .200000000000D+02  .948750000000D+02  .514700010750D-08 -.731992536599D+00
     .503845512867D-05  .559245096520D-02  .587105751038D-05  .515372220421D+04
     .215984000000D+06  .745058059692D-08 -.131324136856D+01  .102445483208D-06
     .933510556782D+00  .254718750000D+03 -.194020650022D+01 -.850714007082D-08
     .192508018732D-09  .100000000000D+01  .159900000000D+04  .000000000000D+00
     .240000000000D+01  .000000000000D+00 -.176951289177D-07  .200000000000D+02
     .208956000000D+06  .400000000000D+01
 1 10  8 31 11 59 44.0 -.157649163157D-03 -.397903932026D-11  .000000000000D+00
     .800000000000D+01 -.195625000000D+02  .451590239118D-08 -.982490527234D+00
    -.108405947685D-05  .450936378911D-02  .773184001446D-05  .515361791611D+04
     .215984000000D+06  .353902578354D-07  .179917602450D+01  .141561031342D-06
     .965559962717D+00  .232187500000D+03  .951527244346D+00 -.800747640068D-08
     .216437586923D-09  .100000000000D+01  .159900000000D+04  .000000000000D+00
     .240000000000D+01  .630000000000D+02 -.190921127796D-07  .800000000000D+01
     .212076000000D+06  .400000000000D+01
 1 10  8 31 13 59 44.0 -.157677568495D-03 -.397903932026D-11  .000000000000D+00
     .900000000000D+01 -.157812500000D+02  .462590697331D-08  .677483272698D-01
    -.685453414917D-06  .450983084738D-02  .756978988647D-05  .515361879349D+04
     .223184000000D+06 -.298023223877D-07  .179911760872D+01  .335276126862D-07
     .965561203271D+00  .232656250000D+03  .951503852286D+00 -.811712382507D-08
     .250367571671D-09  .100000000000D+01  .159900000000D+04  .000000000000D+00
     .240000000000D+01  .630000000000D+02 -.190921127796D-07  .900000000000D+01
     .216006000000D+06  .400000000000D+01
 2 10  8 31 14  0  0.0  .284994486719D-03  .284217094304D-11  .000000000000D+00
     .650000000000D+02  .149375000000D+02  .478162774542D-08 -.137095245104D+01
     .841915607452D-06  .967177096754D-02  .965408980846D-05  .515362918663D+04
     .223200000000D+06 -.130385160446D-06 -.240241740573D+01 -.219792127609D-06
     .939742893549D+00  .184750000000D+03  .312588681776D+01 -.801997692137D-08
    -.130005415247D-09  .100000000000D+01  .159900000000D+04  .000000000000D+00
     .240000000000D+01  .000000000000D+00 -.172294676304D-07  .650000000000D+02
     .216006000000D+06  .400000000000D+01
 3 10  8 31 14  0  0.0  .602231826633D-03  .511590769747D-11  .000000000000D+00
     .600000000000D+02 -.256250000000D+02  .545058418157D-08 -.149562601631D+01
    -.124797224998D-05  .135631142184D-01  .607222318649D-05  .515359479904D+04
     .223200000000D+06  .346451997757D-06  .272736040085D+01  .856816768646D-07
     .927845656679D+00  .243000000000D+03  .102674220455D+01 -.834391898629D-08
    -.136434254463D-09  .100000000000D+01  .159900000000D+04  .000000000000D+00
     .485000000000D+01  .000000000000D+00 -.465661287308D-08  .600000000000D+02
     .216006000000D+06  .400000000000D+01
 4 10  8 31 14  0  0.0  .158927403390D-03  .875388650456D-11  .000000000000D+00
     .570000000000D+02  .181875000000D+02  .486020244694D-08  .167211382854D+01
     .100582838058D-05  .922370201442D-02  .101625919342D-04  .515374299240D+04
     .223200000000D+06 -.147148966789D-06 -.238467890228D+01 -.223517417908D-07
     .938857336571D+00  .177437500000D+03  .634264598409D+00 -.815748264904D-08
    -.373586989969D-09  .100000000000D+01  .159900000000D+04  .000000000000D+00
     .240000000000D+01  .000000000000D+00 -.605359673500D-08  .570000000000D+02
     .216006000000D+06  .400000000000D+01
 5 10  8 31 14  0  0.0 -.305892899632D-04 -.477484718431D-11  .000000000000D+00
     .280000000000D+02  .735312500000D+02  .451768817985D-08  .295044131418D+00
     .395998358727D-05  .188760703895D-02  .673905014992D-05  .515377663231D+04
     .223200000000D+06  .484287738800D-07 -.134173696612D+01  .186264514923D-08
     .956860429238D+00  .245843750000D+03  .171699227848D+00 -.813569602725D-08
     .127862468842D-09  .100000000000D+01  .159900000000D+04  .000000000000D+00
     .240000000000D+01  .000000000000D+00 -.884756445885D-08  .280000000000D+02
     .216006000000D+06  .400000000000D+01
 6 10  8 31 14  0  0.0  .512258615345D-03 -.150066625793D-10  .000000000000D+00
     .930000000000D+02 -.322812500000D+02  .535093717373D-08  .703548171891D+00
    -.194087624550D-05  .622031593230D-02  .661239027977D-05  .515364927292D+04
     .223200000000D+06  .260770320892D-07  .279873867845D+01 -.108033418655D-06
     .935161753881D+00  .240531250000D+03 -.970755418260D+00 -.844892336014D-08
    -.226438003480D-09  .100000000000D+01  .159900000000D+04  .000000000000D+00
     .240000000000D+01  .000000000000D+00 -.512227416039D-08  .930000000000D+02
     .216006000000D+06  .400000000000D+01
 7 10  8 31 14  0  0.0 -.193854793906D-05  .000000000000D+00  .000000000000D+00
     .940000000000D+02 -.653750000000D+02  .421481842125D-08 -.301327551676D+01
    -.322796404362D-05  .399750936776D-02  .779144465923D-05  .515370263481D+04
     .223200000000D+06 -.484287738800D-07  .759729524824D+00 -.186264514923D-08
     .972550709864D+00  .238437500000D+03  .307183366099D+01 -.786925635754D-08
     .760745973838D-10  .100000000000D+01  .159900000000D+04  .000000000000D+00
     .240000000000D+01  .000000000000D+00 -.102445483208D-07  .940000000000D+02
     .216006000000D+06  .400000000000D+01
 8 10  8 31 14  0  0.0  .654673203826D-05  .113686837722D-12  .000000000000D+00
     .700000000000D+02 -.696562500000D+02  .371015454283D-08  .265877205431D+01
    -.342540442944D-05  .114145324333D-01  .806152820587D-05  .515367499542D+04
     .223200000000D+06 -.214204192162D-06  .829618458196D+00  .689178705215D-07
     .993963225278D+00  .244906250000D+03  .312506685217D+01 -.757460122683D-08
     .103932900651D-09  .100000000000D+01  .159900000000D+04  .000000000000D+00
     .240000000000D+01  .000000000000D+00 -.372529029846D-08  .700000000000D+02
     .216006000000D+06  .400000000000D+01
 9 10  8 31 14  0  0.0  .276337377727D-04  .227373675443D-11  .000000000000D+00
     .490000000000D+02 -.531875000000D+02  .394909306701D-08  .252518123824D+01
    -.287964940071D-05  .170991431223D-01  .725314021111D-05  .515370910645D+04
     .223200000000D+06  .169500708580D-06  .729255863062D+00 -.173225998878D-06
     .981623163105D+00  .247218750000D+03  .154711249209D+01 -.753674250701D-08
    -.267868300647D-10  .100000000000D+01  .159900000000D+04  .000000000000D+00
     .340000000000D+01  .000000000000D+00 -.558793544769D-08  .490000000000D+02
     .216006000000D+06  .400000000000D+01
